NORAD_CAT_ID,OBJECT_NAME,OBJECT_TYPE,EPOCH,MEAN_MOTION,ECCENTRICITY,INCLINATION,RA_OF_ASC_NODE,ARG_OF_PERICENTER,MEAN_ANOMALY,BSTAR,MEAN_MOTION_DOT,MEAN_MOTION_DDOT,TLE_LINE0,TLE_LINE1,TLE_LINE2,SEMIMAJOR_AXIS,PERIOD,APOGEE,PERIGEE,DECAYED
53773.0,STARLINK-4718,PAYLOAD,2022-10-12 22:00:00,15.52010035,0.0001092,53.2175,110.0983,102.6138,239.766,-0.021565,-0.01203461,0.0,0 STARLINK-4718,1 53773U 22111A   22285.91667824 -.01203461  00000-0 -21565-1 0  9993,2 53773  53.2175 110.0983 0001092 102.6138 239.7660 15.52010035  4936,6788.995,92.783,411.601,410.119,0.0
53773.0,STARLINK-4718,PAYLOAD,2022-10-13 14:00:01,15.50295048,0.0001223,53.2177,106.9043,106.7896,0.445,-0.022897,-0.01201604,0.0,0 STARLINK-4718,1 53773U 22111A   22286.58334491 -.01201604  00000-0 -22897-1 0  9994,2 53773  53.2177 106.9043 0001223 106.7896   0.4450 15.50295048  1306,6794.001,92.886,416.697,415.035,0.0
53773.0,STARLINK-4718,PAYLOAD,2022-10-13 20:00:01,15.49654296,0.0001142,53.2176,105.7108,103.5055,319.5496,-0.0234979999999999,-0.01204952,0.0,0 STARLINK-4718,1 53773U 22111A   22286.83335648 -.01204952  00000-0 -23498-1 0  9994,2 53773  53.2176 105.7108 0001142 103.5055 319.5496 15.49654296  5081,6795.874,92.924,418.515,416.962,0.0
53773.0,STARLINK-4718,PAYLOAD,2022-10-13 22:00:00,15.49435106,0.0001301,53.2176,105.313,102.8901,65.2262,-0.023506,-0.01196837,0.0,0 STARLINK-4718,1 53773U 22111A   22286.91667824 -.01196837  00000-0 -23506-1 0  9999,2 53773  53.2176 105.3130 0001301 102.8901  65.2262 15.49435106  1305,6796.514,92.937,419.264,417.495,0.0
53773.0,STARLINK-4718,PAYLOAD,2022-10-14 14:00:01,15.47724128,0.0001288,53.2177,102.1315,114.4148,172.3744,-0.025075,-0.01201484,0.0,0 STARLINK-4718,1 53773U 22111A   22287.58334491 -.01201484  00000-0 -25075-1 0  9992,2 53773  53.2177 102.1315 0001288 114.4148 172.3744 15.47724128  1300,6801.523,93.04,424.264,422.511,0.0
53773.0,STARLINK-4718,PAYLOAD,2022-10-14 16:00:00,15.47509814,0.0001097,53.2176,101.7352,106.9407,284.3926,-0.025271,-0.01201734,0.0,0 STARLINK-4718,1 53773U 22111A   22287.66667824 -.01201734  00000-0 -25271-1 0  9996,2 53773  53.2176 101.7352 0001097 106.9407 284.3926 15.47509814  5210,6802.15,93.053,424.762,423.269,0.0
53773.0,STARLINK-4718,PAYLOAD,2022-10-14 20:00:01,15.47080758,0.0001354,53.2175,100.9426,106.1686,134.0602,-0.025625,-0.01200616,0.0,0 STARLINK-4718,1 53773U 22111A   22287.83334491 -.01200616  00000-0 -25625-1 0  9997,2 53773  53.2175 100.9426 0001354 106.1686 134.0602 15.47080758  1308,6803.408,93.079,426.194,424.352,0.0
53773.0,STARLINK-4718,PAYLOAD,2022-10-15 14:00:01,15.45152612,0.0001173,53.2175,97.3771,94.3324,2.7418,-0.027411,-0.01201156,0.0,0 STARLINK-4718,1 53773U 22111A   22288.58334491 -.01201156  00000-0 -27411-1 0  9995,2 53773  53.2175  97.3771 0001173  94.3324   2.7418 15.45152612  5358,6809.066999999999,93.195,431.73,430.133,0.0
53773.0,STARLINK-4718,PAYLOAD,2022-10-15 22:00:01,15.44290102,0.0001255,53.2174,95.7979,87.52600000000002,64.3153,-0.027999,-0.01192038,0.0,0 STARLINK-4718,1 53773U 22111A   22288.91668981 -.01192038  00000-0 -27999-1 0  9995,2 53773  53.2174  95.7979 0001255  87.5260  64.3153 15.44290102  1300,6811.602,93.247,434.322,432.612,0.0
53773.0,STARLINK-4718,PAYLOAD,2022-10-16 14:00:01,15.42579617,0.0001327,53.2175,92.6413,106.8992,151.1903,-0.029831,-0.01197717,0.0,0 STARLINK-4718,1 53773U 22111A   22289.58334491 -.01197717  00000-0 -29831-1 0  9991,2 53773  53.2175  92.6413 0001327 106.8992 151.1903 15.42579617  1304,6816.636,93.35,439.406,437.597,0.0
53773.0,STARLINK-4718,PAYLOAD,2022-10-16 22:00:00,15.41720807,0.0001163,53.2173,91.068,104.9397,204.761,-0.030612,-0.01194282,0.0,0 STARLINK-4718,1 53773U 22111A   22289.91667824 -.01194282  00000-0 -30612-1 0  9990,2 53773  53.2173  91.0680 0001163 104.9397 204.7610 15.41720807  1305,6819.167,93.402,441.825,440.239,0.0
53773.0,STARLINK-4718,PAYLOAD,2022-10-17 14:00:01,15.40009386,0.0001121,53.2175,87.9238,100.5852,309.2486,-0.0325639999999999,-0.01199303,0.0,0 STARLINK-4718,1 53773U 22111A   22290.58334491 -.01199303  00000-0 -32564-1 0  9993,2 53773  53.2175  87.9238 0001121 100.5852 309.2486 15.40009386  1305,6824.219,93.506,446.849,445.319,0.0
53773.0,STARLINK-4718,PAYLOAD,2022-10-17 22:00:00,15.39155874,0.0001264,53.217,86.3559,87.5018,10.8514,-0.03362,-0.01203314,0.0,0 STARLINK-4718,1 53773U 22111A   22290.91667824 -.01203314  00000-0 -33620-1 0  9991,2 53773  53.2170  86.3559 0001264  87.5018  10.8514 15.39155874  5713,6826.741,93.558,449.469,447.74300000000005,0.0
53773.0,STARLINK-4718,PAYLOAD,2022-10-18 14:00:01,15.37447562,0.0001283,53.2172,83.2238,97.2738,95.0308,-0.03584,-0.01211905,0.0,0 STARLINK-4718,1 53773U 22111A   22291.58334491 -.01211905  00000-0 -35840-1 0  9997,2 53773  53.2172  83.2238 0001283  97.2738  95.0308 15.37447562  1306,6831.797,93.662,454.539,452.786,0.0
53773.0,STARLINK-4718,PAYLOAD,2022-10-18 22:00:00,15.36577791,0.0001296999999999,53.2173,81.6632,98.9795,138.761,-0.036236,-0.0119294,0.0,0 STARLINK-4718,1 53773U 22111A   22291.91667824 -.01192940  00000-0 -36236-1 0  9990,2 53773  53.2173  81.6632 0001297  98.9795 138.7610 15.36577791  5866,6834.375,93.715,457.126,455.354,0.0
53773.0,STARLINK-4718,PAYLOAD,2022-10-19 14:00:01,15.34874873,0.0001227,53.2172,78.5427,99.4749,226.0347,-0.038855,-0.0120906,0.0,0 STARLINK-4718,1 53773U 22111A   22292.58334491 -.01209060  00000-0 -38855-1 0  9996,2 53773  53.2172  78.5427 0001227  99.4749 226.0347 15.34874873  5968,6839.429,93.819,462.133,460.455,0.0
53773.0,STARLINK-4718,PAYLOAD,2022-10-19 22:00:00,15.34007368,0.0001071,53.2173,76.9882,95.5243,272.3304,-0.0393899999999999,-0.01193607,0.0,0 STARLINK-4718,1 53773U 22111A   22292.91667824 -.01193607  00000-0 -39390-1 0  9996,2 53773  53.2173  76.9882 0001071  95.5243 272.3304 15.34007368  1307,6842.007,93.872,464.605,463.14,0.0
53773.0,STARLINK-4718,PAYLOAD,2022-10-20 14:00:01,15.32293117,0.0001222,53.2176,73.8812,79.6243,9.8242,-0.04163,-0.01194565,0.0,0 STARLINK-4718,1 53773U 22111A   22293.58334491 -.01194565  00000-0 -41630-1 0  9995,2 53773  53.2176  73.8812 0001222  79.6243   9.8242 15.32293117  1301,6847.11,93.977,469.811,468.138,0.0
53773.0,STARLINK-4718,PAYLOAD,2022-10-20 22:00:00,15.31435449,0.000128,53.2172,72.3314,77.4471,51.2528,-0.042702,-0.01192841,0.0,0 STARLINK-4718,1 53773U 22111A   22293.91667824 -.01192841  00000-0 -42702-1 0  9997,2 53773  53.2172  72.3314 0001280  77.4471  51.2528 15.31435449  1304,6849.666,94.029,472.407,470.654,0.0
53773.0,STARLINK-4718,PAYLOAD,2022-10-21 14:00:01,15.29719321,0.0001389,53.2175,69.2367,95.4117,108.7023,-0.044947,-0.01206738,0.0,0 STARLINK-4718,1 53773U 22111A   22294.58334491 -.01206738  00000-0 -44947-1 0  9996,2 53773  53.2175  69.2367 0001389  95.4117 108.7023 15.29719321  1306,6854.788000000001,94.135,477.605,475.701,0.0
53773.0,STARLINK-4718,PAYLOAD,2022-10-21 22:00:00,15.28887498,0.0001335,53.2163,67.6921,92.3558,147.908,-0.047603,-0.01242382,0.0,0 STARLINK-4718,1 53773U 22111A   22294.91667824 -.01242382  00000-0 -47603-1 0  9999,2 53773  53.2163  67.6921 0001335  92.3558 147.9080 15.28887498  1305,6857.274,94.186,480.054,478.223,0.0
53773.0,STARLINK-4718,PAYLOAD,2022-10-22 06:00:00,15.28005146,0.0001281999999999,53.2173,66.1491,101.1283,174.2795,-0.047394,-0.01206774,0.0,0 STARLINK-4718,1 53773U 22111A   22295.25001157 -.01206774  00000-0 -47394-1 0  9990,2 53773  53.2173  66.1491 0001282 101.1283 174.2795 15.28005146  6377,6859.913000000001,94.241,482.658,480.899,0.0
53773.0,STARLINK-4718,PAYLOAD,2022-10-22 14:00:01,15.27163537,0.0001284999999999,53.2169,64.6094,108.5539,200.9478,-0.04958,-0.01228396,0.0,0 STARLINK-4718,1 53773U 22111A   22295.58334491 -.01228396  00000-0 -49580-1 0  9999,2 53773  53.2169  64.6094 0001285 108.5539 200.9478 15.27163537  1303,6862.433000000001,94.292,485.18,483.417,0.0
53773.0,STARLINK-4718,PAYLOAD,2022-10-22 22:00:00,15.26309993,0.0001167,53.2164,63.0719,93.6156,248.9556,-0.051128,-0.01233703,0.0,0 STARLINK-4718,1 53773U 22111A   22295.91667824 -.01233703  00000-0 -51128-1 0  9994,2 53773  53.2164  63.0719 0001167  93.6156 248.9556 15.26309993  1309,6864.9919999999975,94.345,487.658,486.055,0.0
53773.0,STARLINK-4718,PAYLOAD,2022-10-23 00:00:02,15.26076869,0.0001205,53.217,62.6875,85.70100000000002,355.0499,-0.050299,-0.01207399,0.0,0 STARLINK-4718,1 53773U 22111A   22296.00002315 -.01207399  00000-0 -50299-1 0  9993,2 53773  53.2170  62.6875 0001205  85.7010 355.0499 15.26076869  6492,6865.691,94.36,488.383,486.728,0.0
53773.0,STARLINK-4718,PAYLOAD,2022-10-23 14:00:01,15.24586677,0.0001214,53.217,60.0014,101.3089,304.3199,-0.05326,-0.01220961,0.0,0 STARLINK-4718,1 53773U 22111A   22296.58334491 -.01220961  00000-0 -53260-1 0  9990,2 53773  53.2170  60.0014 0001214 101.3089 304.3199 15.24586677  1300,6870.1640000000025,94.452,492.86300000000006,491.195,0.0
53773.0,STARLINK-4718,PAYLOAD,2022-10-23 22:00:00,15.23728947,0.0001199,53.2165,58.4696,86.5266,349.0837,-0.054577,-0.01219465,0.0,0 STARLINK-4718,1 53773U 22111A   22296.91667824 -.01219465  00000-0 -54577-1 0  9995,2 53773  53.2165  58.4696 0001199  86.5266 349.0837 15.23728947  1306,6872.7419999999975,94.505,495.431,493.783,0.0
53773.0,STARLINK-4718,PAYLOAD,2022-10-24 14:00:01,15.22010133,0.0001371,53.2171,55.4115,98.9181,33.5674,-0.057137,-0.01213475,0.0,0 STARLINK-4718,1 53773U 22111A   22297.58334491 -.01213475  00000-0 -57137-1 0  9990,2 53773  53.2171  55.4115 0001371  98.9181  33.5674 15.22010133  1305,6877.915,94.612,500.723,498.837,0.0
53773.0,STARLINK-4718,PAYLOAD,2022-10-24 22:00:00,15.21155483,0.000134,53.2167,53.8855,89.4444,69.9314,-0.058757,-0.01216462,0.0,0 STARLINK-4718,1 53773U 22111A   22297.91667824 -.01216462  00000-0 -58757-1 0  9994,2 53773  53.2167  53.8855 0001340  89.4444  69.9314 15.21155483  1307,6880.491,94.665,503.278,501.434,0.0
